{
  "type": "FeatureCollection",
  "features": [
    {
      "type": "Feature",
      "properties": {
        "norad_id": 50032,
        "name": "COSMOS 1408 DEB",
        "group": "cosmos-1408-debris",
        "lat": -18.027315666072386,
        "lon": 64.19449364045425,
        "alt_km": 436.92934065517875,
        "timestamp": "2025-12-04T19:33:59.874470+00:00",
        "meta_object_name": "COSMOS 1408 DEB",
        "meta_object_id": "1982-092RU",
        "meta_epoch": "2025-12-04T07:12:52.092288",
        "meta_mean_motion": 15.45562169,
        "meta_eccentricity": 0.00147165,
        "meta_inclination": 82.5658,
        "meta_ra_of_asc_node": 67.1573,
        "meta_arg_of_pericenter": 241.6021,
        "meta_mean_anomaly": 118.3745,
        "meta_ephemeris_type": 0,
        "meta_classification_type": "U",
        "meta_norad_cat_id": 50032,
        "meta_element_set_no": 999,
        "meta_rev_at_epoch": 22473,
        "meta_bstar": 0.00021483539,
        "meta_mean_motion_dot": 0.00010403,
        "meta_mean_motion_ddot": 0,
        "tle_line1": "1 50032U 82092RU  25338.30060292  .00010403  00000+0  21484-3 0  9993",
        "tle_line2": "2 50032  82.5658  67.1573 0014716 241.6021 118.3745 15.45562169224731"
      },
      "geometry": {
        "type": "Point",
        "coordinates": [
          64.19449364045425,
          -18.027315666072386
        ]
      }
    },
    {
      "type": "Feature",
      "properties": {
        "norad_id": 50058,
        "name": "COSMOS 1408 DEB",
        "group": "cosmos-1408-debris",
        "lat": 27.022327216544564,
        "lon": 81.42420202108156,
        "alt_km": 378.69669197685835,
        "timestamp": "2025-12-04T19:33:59.874488+00:00",
        "meta_object_name": "COSMOS 1408 DEB",
        "meta_object_id": "1982-092SW",
        "meta_epoch": "2025-12-04T07:09:39.475584",
        "meta_mean_motion": 15.63350029,
        "meta_eccentricity": 0.00162609,
        "meta_inclination": 82.6139,
        "meta_ra_of_asc_node": 78.171,
        "meta_arg_of_pericenter": 128.8171,
        "meta_mean_anomaly": 231.4543,
        "meta_ephemeris_type": 0,
        "meta_classification_type": "U",
        "meta_norad_cat_id": 50058,
        "meta_element_set_no": 999,
        "meta_rev_at_epoch": 22672,
        "meta_bstar": 0.00063988706,
        "meta_mean_motion_dot": 0.00059517,
        "meta_mean_motion_ddot": 0,
        "tle_line1": "1 50058U 82092SW  25338.29837356  .00059517  00000+0  63989-3 0  9997",
        "tle_line2": "2 50058  82.6139  78.1710 0016260 128.8171 231.4543 15.63350029226721"
      },
      "geometry": {
        "type": "Point",
        "coordinates": [
          81.42420202108156,
          27.022327216544564
        ]
      }
    },
    {
      "type": "Feature",
      "properties": {
        "norad_id": 50404,
        "name": "COSMOS 1408 DEB",
        "group": "cosmos-1408-debris",
        "lat": 37.376499892313056,
        "lon": 37.130465380171906,
        "alt_km": 512.6626911552339,
        "timestamp": "2025-12-04T19:33:59.874499+00:00",
        "meta_object_name": "COSMOS 1408 DEB",
        "meta_object_id": "1982-092ADS",
        "meta_epoch": "2025-12-04T03:02:32.219520",
        "meta_mean_motion": 15.11972911,
        "meta_eccentricity": 0.01759389,
        "meta_inclination": 82.207,
        "meta_ra_of_asc_node": 223.8385,
        "meta_arg_of_pericenter": 228.6918,
        "meta_mean_anomaly": 129.9057,
        "meta_ephemeris_type": 0,
        "meta_classification_type": "U",
        "meta_norad_cat_id": 50404,
        "meta_element_set_no": 999,
        "meta_rev_at_epoch": 21063,
        "meta_bstar": 0.0052613218,
        "meta_mean_motion_dot": 0.00133611,
        "meta_mean_motion_ddot": 0,
        "tle_line1": "1 50404U 82092ADS 25338.12676180  .00133611  00000+0  52613-2 0  9999",
        "tle_line2": "2 50404  82.2070 223.8385 0175938 228.6918 129.9057 15.11972911210636"
      },
      "geometry": {
        "type": "Point",
        "coordinates": [
          37.130465380171906,
          37.376499892313056
        ]
      }
    },
    {
      "type": "Feature",
      "properties": {
        "norad_id": 50621,
        "name": "COSMOS 1408 DEB",
        "group": "cosmos-1408-debris",
        "lat": -73.24432187507485,
        "lon": -71.88910572209306,
        "alt_km": 400.81523091847976,
        "timestamp": "2025-12-04T19:33:59.874509+00:00",
        "meta_object_name": "COSMOS 1408 DEB",
        "meta_object_id": "1982-092ALR",
        "meta_epoch": "2025-12-04T07:40:18.152256",
        "meta_mean_motion": 15.55994248,
        "meta_eccentricity": 0.00288655,
        "meta_inclination": 82.5706,
        "meta_ra_of_asc_node": 82.9412,
        "meta_arg_of_pericenter": 183.2784,
        "meta_mean_anomaly": 176.8286,
        "meta_ephemeris_type": 0,
        "meta_classification_type": "U",
        "meta_norad_cat_id": 50621,
        "meta_element_set_no": 999,
        "meta_rev_at_epoch": 22119,
        "meta_bstar": 0.0007370431,
        "meta_mean_motion_dot": 0.00052478,
        "meta_mean_motion_ddot": 0,
        "tle_line1": "1 50621U 82092ALR 25338.31965454  .00052478  00000+0  73704-3 0  9992",
        "tle_line2": "2 50621  82.5706  82.9412 0028865 183.2784 176.8286 15.55994248221197"
      },
      "geometry": {
        "type": "Point",
        "coordinates": [
          -71.88910572209306,
          -73.24432187507485
        ]
      }
    }
  ]
}